start=new Date('2022-07-17T00:00:00.000Z').valueOf();
sats=[{"ELEMENT_SET_NO":"999","FILE":"3515618","MEAN_MOTION_DDOT":"0.0000000000000","TLE_LINE1":"1 48455U 21040AD  22197.85206305  .00005564  00000-0  39206-3 0  9996","DECAY_DATE":null,"NORAD_CAT_ID":"48455","COUNTRY_CODE":"US","ARG_OF_PERICENTER":"68.6400","ECCENTRICITY":"0.00015630","RA_OF_ASC_NODE":"40.4653","MEAN_ELEMENT_THEORY":"SGP4","TLE_LINE2":"2 48455  53.0548  40.4653 0001563  68.6400 291.4755 15.06407165 65889","LAUNCH_DATE":"2021-05-09","TIME_SYSTEM":"UTC","REF_FRAME":"TEME","CENTER_NAME":"EARTH","INCLINATION":"53.0548","SITE":"AFETR","OBJECT_TYPE":"PAYLOAD","APOAPSIS":"548.274","EPHEMERIS_TYPE":"0","BSTAR":"0.00039206000000","PERIAPSIS":"546.109","OBJECT_NAME":"STARLINK-2497","MEAN_MOTION":"15.06407165","CLASSIFICATION_TYPE":"U","PERIOD":"95.592","OBJECT_ID":"2021-040AD","GP_ID":"208269652","SEMIMAJOR_AXIS":"6925.327","EPOCH":"2022-07-16T20:26:58.247520","RCS_SIZE":"LARGE","REV_AT_EPOCH":"6588","MEAN_MOTION_DOT":"0.00005564","MEAN_ANOMALY":"291.4755"},{"REF_FRAME":"TEME","SITE":"AFETR","INCLINATION":"53.0572","CENTER_NAME":"EARTH","OBJECT_TYPE":"PAYLOAD","BSTAR":"0.00020755000000","EPHEMERIS_TYPE":"0","APOAPSIS":"548.304","OBJECT_NAME":"STARLINK-2508","PERIAPSIS":"546.127","OBJECT_ID":"2021-040AE","PERIOD":"95.592","CLASSIFICATION_TYPE":"U","MEAN_MOTION":"15.06399305","EPOCH":"2022-07-16T20:21:39.819456","SEMIMAJOR_AXIS":"6925.351","GP_ID":"208270402","MEAN_ANOMALY":"286.4168","MEAN_MOTION_DOT":"0.00002811","REV_AT_EPOCH":"6588","RCS_SIZE":"LARGE","ELEMENT_SET_NO":"999","MEAN_MOTION_DDOT":"0.0000000000000","FILE":"3515618","DECAY_DATE":null,"TLE_LINE1":"1 48456U 21040AE  22197.84837754  .00002811  00000-0  20755-3 0  9995","NORAD_CAT_ID":"48456","COUNTRY_CODE":"US","ECCENTRICITY":"0.00015720","RA_OF_ASC_NODE":"40.4959","ARG_OF_PERICENTER":"73.6994","TLE_LINE2":"2 48456  53.0572  40.4959 0001572  73.6994 286.4168 15.06399305 65888","MEAN_ELEMENT_THEORY":"SGP4","TIME_SYSTEM":"UTC","LAUNCH_DATE":"2021-05-09"},{"REV_AT_EPOCH":"6653","RCS_SIZE":"LARGE","MEAN_MOTION_DOT":"0.00003931","MEAN_ANOMALY":"273.5460","SEMIMAJOR_AXIS":"6925.335","EPOCH":"2022-07-16T20:39:35.270496","GP_ID":"208270653","OBJECT_ID":"2021-040AG","PERIOD":"95.592","MEAN_MOTION":"15.06404467","CLASSIFICATION_TYPE":"U","OBJECT_NAME":"STARLINK-2698","PERIAPSIS":"546.397","APOAPSIS":"548.003","EPHEMERIS_TYPE":"0","BSTAR":"0.00028261000000","OBJECT_TYPE":"PAYLOAD","SITE":"AFETR","INCLINATION":"53.0559","CENTER_NAME":"EARTH","REF_FRAME":"TEME","LAUNCH_DATE":"2021-05-09","TIME_SYSTEM":"UTC","MEAN_ELEMENT_THEORY":"SGP4","TLE_LINE2":"2 48458  53.0559  45.5212 0001159  86.5661 273.5460 15.06404467 66539","ARG_OF_PERICENTER":"86.5661","ECCENTRICITY":"0.00011590","RA_OF_ASC_NODE":"45.5212","COUNTRY_CODE":"US","NORAD_CAT_ID":"48458","TLE_LINE1":"1 48458U 21040AG  22197.86082489  .00003931  00000-0  28261-3 0  9990","DECAY_DATE":null,"FILE":"3515618","MEAN_MOTION_DDOT":"0.0000000000000","ELEMENT_SET_NO":"999"},{"SEMIMAJOR_AXIS":"6925.340","EPOCH":"2022-07-16T20:29:00.919968","GP_ID":"208271393","REV_AT_EPOCH":"6582","RCS_SIZE":"LARGE","MEAN_ANOMALY":"291.6318","MEAN_MOTION_DOT":"0.00004759","OBJECT_NAME":"STARLINK-2579","PERIAPSIS":"546.169","PERIOD":"95.592","OBJECT_ID":"2021-040AH","MEAN_MOTION":"15.06402932","CLASSIFICATION_TYPE":"U","OBJECT_TYPE":"PAYLOAD","APOAPSIS":"548.241","BSTAR":"0.00033812000000","EPHEMERIS_TYPE":"0","REF_FRAME":"TEME","SITE":"AFETR","INCLINATION":"53.0543","CENTER_NAME":"EARTH","MEAN_ELEMENT_THEORY":"SGP4","TLE_LINE2":"2 48459  53.0543  45.8194 0001496  68.4830 291.6318 15.06402932 65825","LAUNCH_DATE":"2021-05-09","TIME_SYSTEM":"UTC","COUNTRY_CODE":"US","ARG_OF_PERICENTER":"68.4830","RA_OF_ASC_NODE":"45.8194","ECCENTRICITY":"0.00014960","TLE_LINE1":"1 48459U 21040AH  22197.85348287  .00004759  00000-0  33812-3 0  9998","DECAY_DATE":null,"NORAD_CAT_ID":"48459","ELEMENT_SET_NO":"999","FILE":"3515618","MEAN_MOTION_DDOT":"0.0000000000000"},{"REF_FRAME":"TEME","CENTER_NAME":"EARTH","INCLINATION":"53.0554","SITE":"AFETR","OBJECT_TYPE":"PAYLOAD","APOAPSIS":"548.315","BSTAR":"0.00009618600000","EPHEMERIS_TYPE":"0","PERIAPSIS":"546.137","OBJECT_NAME":"STARLINK-2582","MEAN_MOTION":"15.06395946","CLASSIFICATION_TYPE":"U","OBJECT_ID":"2021-040AJ","PERIOD":"95.592","GP_ID":"208270152","SEMIMAJOR_AXIS":"6925.361","EPOCH":"2022-07-16T20:55:30.427680","REV_AT_EPOCH":"6633","RCS_SIZE":"LARGE","MEAN_ANOMALY":"290.3403","MEAN_MOTION_DOT":"0.00001151","ELEMENT_SET_NO":"999","FILE":"3515618","MEAN_MOTION_DDOT":"0.0000000000000","TLE_LINE1":"1 48460U 21040AJ  22197.87187995  .00001151  00000-0  96186-4 0  9996","DECAY_DATE":null,"NORAD_CAT_ID":"48460","COUNTRY_CODE":"US","ARG_OF_PERICENTER":"69.7755","RA_OF_ASC_NODE":"45.3903","ECCENTRICITY":"0.00015730","MEAN_ELEMENT_THEORY":"SGP4","TLE_LINE2":"2 48460  53.0554  45.3903 0001573  69.7755 290.3403 15.06395946 66332","LAUNCH_DATE":"2021-05-09","TIME_SYSTEM":"UTC"},{"COUNTRY_CODE":"US","ECCENTRICITY":"0.00014370","RA_OF_ASC_NODE":"45.3279","ARG_OF_PERICENTER":"67.1212","TLE_LINE2":"2 48461  53.0547  45.3279 0001437  67.1212 292.9928 15.06397581 65831","MEAN_ELEMENT_THEORY":"SGP4","TIME_SYSTEM":"UTC","LAUNCH_DATE":"2021-05-09","ELEMENT_SET_NO":"999","MEAN_MOTION_DDOT":"0.0000000000000","FILE":"3515618","DECAY_DATE":null,"TLE_LINE1":"1 48461U 21040AK  22197.88661180  .00001277  00000-0  10459-3 0  9998","NORAD_CAT_ID":"48461","PERIAPSIS":"546.226","OBJECT_NAME":"STARLINK-2693","CLASSIFICATION_TYPE":"U","MEAN_MOTION":"15.06397581","PERIOD":"95.592","OBJECT_ID":"2021-040AK","GP_ID":"208269903","EPOCH":"2022-07-16T21:16:43.259520","SEMIMAJOR_AXIS":"6925.356","MEAN_MOTION_DOT":"0.00001277","MEAN_ANOMALY":"292.9928","REV_AT_EPOCH":"6583","RCS_SIZE":"LARGE","REF_FRAME":"TEME","INCLINATION":"53.0547","CENTER_NAME":"EARTH","SITE":"AFETR","OBJECT_TYPE":"PAYLOAD","EPHEMERIS_TYPE":"0","BSTAR":"0.00010459000000","APOAPSIS":"548.216"},{"CLASSIFICATION_TYPE":"U","MEAN_MOTION":"15.06403641","PERIOD":"95.592","OBJECT_ID":"2021-040AL","PERIAPSIS":"546.329","OBJECT_NAME":"STARLINK-2683","MEAN_MOTION_DOT":"0.00000559","MEAN_ANOMALY":"275.1455","RCS_SIZE":"LARGE","REV_AT_EPOCH":"6575","GP_ID":"208271153","EPOCH":"2022-07-16T20:52:13.446048","SEMIMAJOR_AXIS":"6925.337","INCLINATION":"53.0567","CENTER_NAME":"EARTH","SITE":"AFETR","REF_FRAME":"TEME","BSTAR":"0.00005643500000","EPHEMERIS_TYPE":"0","APOAPSIS":"548.076","OBJECT_TYPE":"PAYLOAD","ECCENTRICITY":"0.00012610","RA_OF_ASC_NODE":"50.6603","ARG_OF_PERICENTER":"84.9678","COUNTRY_CODE":"US","TIME_SYSTEM":"UTC","LAUNCH_DATE":"2021-05-09","TLE_LINE2":"2 48462  53.0567  50.6603 0001261  84.9678 275.1455 15.06403641 65756","MEAN_ELEMENT_THEORY":"SGP4","MEAN_MOTION_DDOT":"0.0000000000000","FILE":"3515618","ELEMENT_SET_NO":"999","NORAD_CAT_ID":"48462","DECAY_DATE":null,"TLE_LINE1":"1 48462U 21040AL  22197.86960007  .00000559  00000-0  56435-4 0  9994"},{"OBJECT_NAME":"STARLINK-2689","PERIAPSIS":"546.235","OBJECT_ID":"2021-040AM","PERIOD":"95.592","CLASSIFICATION_TYPE":"U","MEAN_MOTION":"15.06396743","EPOCH":"2022-07-16T21:01:25.981824","SEMIMAJOR_AXIS":"6925.359","GP_ID":"208244209","MEAN_MOTION_DOT":"0.00001109","MEAN_ANOMALY":"284.0683","REV_AT_EPOCH":"6703","RCS_SIZE":"LARGE","REF_FRAME":"TEME","SITE":"AFETR","CENTER_NAME":"EARTH","INCLINATION":"53.0559","OBJECT_TYPE":"PAYLOAD","EPHEMERIS_TYPE":"0","BSTAR":"0.00009337000000","APOAPSIS":"548.212","COUNTRY_CODE":"US","ECCENTRICITY":"0.00014280","RA_OF_ASC_NODE":"50.3731","ARG_OF_PERICENTER":"76.0465","TLE_LINE2":"2 48463  53.0559  50.3731 0001428  76.0465 284.0683 15.06396743 67037","MEAN_ELEMENT_THEORY":"SGP4","TIME_SYSTEM":"UTC","LAUNCH_DATE":"2021-05-09","ELEMENT_SET_NO":"999","MEAN_MOTION_DDOT":"0.0000000000000","FILE":"3515403","DECAY_DATE":null,"TLE_LINE1":"1 48463U 21040AM  22197.87599516  .00001109  00000-0  93370-4 0  9990","NORAD_CAT_ID":"48463"},{"FILE":"3515618","MEAN_MOTION_DDOT":"0.0000000000000","ELEMENT_SET_NO":"999","NORAD_CAT_ID":"48464","TLE_LINE1":"1 48464U 21040AN  22197.85482310  .00001317  00000-0  10726-3 0  9996","DECAY_DATE":null,"ARG_OF_PERICENTER":"81.7459","ECCENTRICITY":"0.00014800","RA_OF_ASC_NODE":"50.4664","COUNTRY_CODE":"US","LAUNCH_DATE":"2021-05-09","TIME_SYSTEM":"UTC","MEAN_ELEMENT_THEORY":"SGP4","TLE_LINE2":"2 48464  53.0561  50.4664 0001480  81.7459 278.3698 15.06400497 65752","CENTER_NAME":"EARTH","INCLINATION":"53.0561","SITE":"AFETR","REF_FRAME":"TEME","APOAPSIS":"548.237","EPHEMERIS_TYPE":"0","BSTAR":"0.00010726000000","OBJECT_TYPE":"PAYLOAD","MEAN_MOTION":"15.06400497","CLASSIFICATION_TYPE":"U","PERIOD":"95.592","OBJECT_ID":"2021-040AN","PERIAPSIS":"546.187","OBJECT_NAME":"STARLINK-2686","REV_AT_EPOCH":"6575","RCS_SIZE":"MEDIUM","MEAN_ANOMALY":"278.3698","MEAN_MOTION_DOT":"0.00001317","GP_ID":"208269653","SEMIMAJOR_AXIS":"6925.347","EPOCH":"2022-07-16T20:30:56.715840"},{"COUNTRY_CODE":"US","RA_OF_ASC_NODE":"50.4090","ECCENTRICITY":"0.00014420","ARG_OF_PERICENTER":"74.8446","TLE_LINE2":"2 48465  53.0535  50.4090 0001442  74.8446 285.2703 15.06404584 65760","MEAN_ELEMENT_THEORY":"SGP4","TIME_SYSTEM":"UTC","LAUNCH_DATE":"2021-05-09","ELEMENT_SET_NO":"999","MEAN_MOTION_DDOT":"0.0000000000000","FILE":"3515618","DECAY_DATE":null,"TLE_LINE1":"1 48465U 21040AP  22197.86588071  .00001636  00000-0  12869-3 0  9993","NORAD_CAT_ID":"48465","OBJECT_NAME":"STARLINK-2681","PERIAPSIS":"546.201","OBJECT_ID":"2021-040AP","PERIOD":"95.592","CLASSIFICATION_TYPE":"U","MEAN_MOTION":"15.06404584","EPOCH":"2022-07-16T20:46:52.093344","SEMIMAJOR_AXIS":"6925.335","GP_ID":"208270403","MEAN_ANOMALY":"285.2703","MEAN_MOTION_DOT":"0.00001636","RCS_SIZE":"LARGE","REV_AT_EPOCH":"6576","REF_FRAME":"TEME","SITE":"AFETR","CENTER_NAME":"EARTH","INCLINATION":"53.0535","OBJECT_TYPE":"PAYLOAD","BSTAR":"0.00012869000000","EPHEMERIS_TYPE":"0","APOAPSIS":"548.198"}];
